[{"OBJECT_NAME":"STARLINK-6059","OBJECT_ID":"2023-078AZ","EPOCH":"2026-03-09T21:24:17.066016","MEAN_MOTION":14.98328614,"ECCENTRICITY":0.00026337,"INCLINATION":70.0011,"RA_OF_ASC_NODE":343.8217,"ARG_OF_PERICENTER":264.6328,"MEAN_ANOMALY":95.453,"EPHEMERIS_TYPE":0,"CLASSIFICATION_TYPE":"U","NORAD_CAT_ID":56814,"ELEMENT_SET_NO":999,"REV_AT_EPOCH":15271,"BSTAR":2.4703435e-5,"MEAN_MOTION_DOT":2.02e-6,"MEAN_MOTION_DDOT":0},{"OBJECT_NAME":"CZ-3B R\/B","OBJECT_ID":"2015-037C","EPOCH":"2026-03-09T22:10:00.350688","MEAN_MOTION":13.12456199,"ECCENTRICITY":0.14168881,"INCLINATION":54.748,"RA_OF_ASC_NODE":105.1722,"ARG_OF_PERICENTER":341.4572,"MEAN_ANOMALY":13.933,"EPHEMERIS_TYPE":0,"CLASSIFICATION_TYPE":"U","NORAD_CAT_ID":40750,"ELEMENT_SET_NO":999,"REV_AT_EPOCH":20509,"BSTAR":0.00047355631,"MEAN_MOTION_DOT":0.02441896,"MEAN_MOTION_DDOT":5.846346e-6}]
